{
  "norad_id": 68584,
  "name": "KUIPER-00253",
  "history": [
    {
      "epoch": "2026-04-09T12:04:19.633728Z",
      "apogee_km": 457.8263729967057,
      "perigee_km": 449.90534887973354,
      "latitude_deg": -5.047573123530459e-05,
      "longitude_deg": 130.25758556189496,
      "height_km": 456.60004474818425,
      "semi_major_axis_km": 6832.002860938219,
      "eccentricity": 0.0005797,
      "inclination_deg": 51.8708,
      "raan_deg": 149.0897,
      "arg_perigee_deg": 119.9831,
      "mean_anomaly_deg": 240.1731,
      "mean_motion_rev_day": 15.37378144
    }
  ]
}