KUIPER-00253            
1 68584U 26072M   26099.50300502  .00019703  00000+0  53839-3 0  9999
2 68584  51.8708 149.0897 0005797 119.9831 240.1731 15.37378144   810
